1 44752U 19074AR  22365.26695510  .00004492  00000-0  32016-3 0  9999
2 44752  53.0547  33.9182 0001263  63.8864 296.2255 15.06409889173137
1 44752U 19074AR  22365.46599967  .00005497  00000-0  38750-3 0  9997
2 44752  53.0549  33.0239 0001575  62.3472 297.7677 15.06411854172990
1 44752U 19074AR  22365.79773362  .00004001  00000-0  28731-3 0  9994
2 44752  53.0546  31.5343 0001660  58.4867 301.6284 15.06408645173214
1 44752U 19074AR  23001.06313218  .00000376  00000-0  44123-4 0  9997
2 44752  53.0567  30.3447 0001443  62.0887 298.0247 15.06392539173257
1 44752U 19074AR  23001.46120763 -.00003614  00000-0 -22385-3 0  9997
2 44752  53.0547  28.5567 0001582  56.7401 303.3740 15.06395313173142
1 44752U 19074AR  23001.79294953  .00001427  00000-0  11470-3 0  9997
2 44752  53.0555  27.0678 0001600  53.7732 306.3404 15.06389048173196
1 44752U 19074AR  23002.05832905 -.00001394  00000-0 -74721-4 0  9996
2 44752  53.0555  25.8766 0001428  56.3637 303.7488 15.06404244173404
1 44752U 19074AR  23002.32370873 -.00000334  00000-0 -35381-5 0  9990
2 44752  53.0553  24.6850 0001450  58.4989 301.6141 15.06411406173277
1 44752U 19074AR  23002.32370873 -.00000334  00000-0 -35381-5 0  9990
2 44752  53.0553  24.6850 0001450  58.4989 301.6141 15.06411406173446
1 44752U 19074AR  23002.78814323 -.00000482  00000-0 -13487-4 0  9999
2 44752  53.0543  22.6003 0001696  60.0186 300.0971 15.06400179173341
1 44752U 19074AR  23002.78814323 -.00000482  00000-0 -13487-4 0  9999
2 44752  53.0543  22.6003 0001696  60.0186 300.0971 15.06400179173510
1 44752U 19074AR  23003.31891843  .00000725  00000-0  67573-4 0  9994
2 44752  53.0542  20.2167 0001584  60.5798 299.5349 15.06398044173422
1 44752U 19074AR  23004.11508802  .00000026  00000-0  20672-4 0  9996
2 44752  53.0548  16.6433 0001580  59.5459 300.5686 15.06392447173711
1 44752U 19074AR  23004.31412698  .00000509  00000-0  53088-4 0  9998
2 44752  53.0546  15.7500 0001627  58.9994 301.1155 15.06395957173574
1 44752U 19074AR  23004.71219696  .00001497  00000-0  11935-3 0  9996
2 44752  53.0547  13.9628 0001625  60.1467 299.9684 15.06409649173805
1 44752U 19074AR  23004.84489218  .00004174  00000-0  29890-3 0  9993
2 44752  53.0540  13.3668 0001583  56.2599 303.8541 15.06409443173653
1 44752U 19074AR  23005.30931839  .00003907  00000-0  28094-3 0  9994
2 44752  53.0535  11.2809 0001684  58.3985 301.7168 15.06410069173721
1 44752U 19074AR  23005.70739776  .00000854  00000-0  76243-4 0  9992
2 44752  53.0543   9.4954 0001663  62.0272 298.0885 15.06407009173788
1 44752U 19074AR  23005.70739776  .00000854  00000-0  76243-4 0  9992
2 44752  53.0543   9.4954 0001663  62.0272 298.0885 15.06407009173957
1 44752U 19074AR  23006.37087477 -.00003384  00000-0 -20842-3 0  9996
2 44752  53.0533   6.5154 0002132  54.2622 305.8565 15.06388257174057
1 44752U 19074AR  23006.76895127 -.00000446  00000-0 -11024-4 0  9997
2 44752  53.0536   4.7280 0001610  65.1800 294.9356 15.06398047174110
1 44752U 19074AR  23006.90164579  .00002944  00000-0  21647-3 0  9997
2 44752  53.0533   4.1332 0001807  65.3730 294.7447 15.06396276173964
1 44752U 19074AR  23007.16703418  .00015281  00000-0  10424-2 0  9995
2 44752  53.0533   2.9421 0001679  59.6316 300.4839 15.06405624174006
1 44752U 19074AR  23007.16703418  .00015281  00000-0  10424-2 0  9995
2 44752  53.0533   2.9421 0001679  59.6316 300.4839 15.06405624174174
1 44752U 19074AR  23007.69781438  .00003960  00000-0  28464-3 0  9996
2 44752  53.0534   0.5595 0001704  71.3572 288.7602 15.06390538174088
1 44752U 19074AR  23007.69781438  .00003960  00000-0  28464-3 0  9996
2 44752  53.0534   0.5595 0001704  71.3572 288.7602 15.06390538174257
1 44752U 19074AR  23008.36128645  .00002722  00000-0  20159-3 0  9994
2 44752  53.0538 357.5820 0001718  57.4432 302.6723 15.06393277174187
1 44752U 19074AR  23009.22379291  .00003995  00000-0  28693-3 0  9999
2 44752  53.0541 353.7088 0001860  62.5295 297.5883 15.06403450174316
1 44752U 19074AR  23009.22379291  .00003995  00000-0  28693-3 0  9999
2 44752  53.0541 353.7088 0001860  62.5295 297.5883 15.06403450174484
1 44752U 19074AR  23010.21899695 -.00000743  00000-0 -30964-4 0  9990
2 44752  53.0538 349.2388 0001590  61.1033 299.0115 15.06394796174463
1 44752U 19074AR  23010.21899695 -.00000743  00000-0 -30964-4 0  9990
2 44752  53.0538 349.2388 0001590  61.1033 299.0115 15.06394796174632
1 44752U 19074AR  23010.94880446  .00002961  00000-0  21756-3 0  9994
2 44752  53.0549 345.9649 0001557  63.0970 297.0178 15.06408908174572
1 44752U 19074AR  23011.14783829  .00008985  00000-0  62089-3 0  9990
2 44752  53.0543 345.0709 0001618  62.6818 297.4335 15.06426836174779
1 44752U 19074AR  23011.21418429  .00014841  00000-0  10122-2 0  9997
2 44752  53.0543 344.7731 0001653  63.4834 296.6324 15.06434525174612
1 44752U 19074AR  23011.61227057 -.00003175  00000-0 -19428-3 0  9995
2 44752  53.0542 342.9861 0001920  66.8225 293.2966 15.06406052174847
1 44752U 19074AR  23011.87766366 -.00020796  00000-0 -13823-2 0  9994
2 44752  53.0546 341.7958 0001585  82.0701 278.0468 15.06372715174713
1 44752U 19074AR  23012.07670815 -.00010611  00000-0 -69497-3 0  9994
2 44752  53.0541 340.9018 0001624  84.3382 275.7792 15.06373564174919
1 44752U 19074AR  23012.67384522  .00021759  00000-0  14760-2 0  9992
2 44752  53.0536 338.2216 0001585  94.0614 266.0556 15.06379173174839
1 44752U 19074AR  23012.67384522  .00021759  00000-0  14760-2 0  9992
2 44752  53.0536 338.2216 0001585  94.0614 266.0556 15.06379173175009
1 44752U 19074AR  23013.60270747  .00014793  00000-0  10100-2 0  9993
2 44752  53.0539 334.0517 0001733  87.9572 272.1615 15.06397276174972
1 44752U 19074AR  23013.60270747  .00014793  00000-0  10100-2 0  9993
2 44752  53.0539 334.0517 0001733  87.9572 272.1615 15.06397276175142
1 44752U 19074AR  23014.86330130  .00028293  00000-0  19098-2 0  9990
2 44752  53.0534 328.3932 0002535  81.8160 278.3117 15.06416768175335
1 44752U 19074AR  23015.26137872  .00021530  00000-0  14592-2 0  9994
2 44752  53.0535 326.6059 0002219  82.6410 277.4832 15.06416135175391
1 44752U 19074AR  23015.59311109  .00009259  00000-0  63945-3 0  9998
2 44752  53.0521 325.1163 0002137  81.7744 278.3487 15.06411555175279
1 44752U 19074AR  23015.59311109  .00009259  00000-0  63945-3 0  9998
2 44752  53.0521 325.1163 0002137  81.7744 278.3487 15.06411555175448
1 44752U 19074AR  23016.12386734  .00029581  00000-0  19932-2 0  9990
2 44752  53.0539 322.7315 0001612  90.9180 269.1993 15.06460073175351
1 44752U 19074AR  23016.12386734  .00029581  00000-0  19932-2 0  9990
2 44752  53.0539 322.7315 0001612  90.9180 269.1993 15.06460073175520
1 44752U 19074AR  23017.11909182  .00014983  00000-0  10232-2 0  9992
2 44752  53.0516 318.2657 0001925  71.8831 288.2367 15.06379593175671
1 44752U 19074AR  23017.51717941  .00011933  00000-0  81921-3 0  9992
2 44752  53.0536 316.4779 0001706  65.2011 294.9155 15.06372542175735
1 44752U 19074AR  23018.24699096  .00044360  00000-0  29751-2 0  9995
2 44752  53.0539 313.2017 0001738  67.7335 292.3838 15.06439342175843
1 44752U 19074AR  23018.51238004  .00011940  00000-0  81871-3 0  9993
2 44752  53.0538 312.0076 0002354  69.5600 290.5641 15.06419410175884
1 44752U 19074AR  23019.04314699  .00006388  00000-0  44710-3 0  9998
2 44752  53.0540 309.6250 0001824  74.0324 286.0865 15.06420079175968
1 44752U 19074AR  23019.50757457  .00000213  00000-0  33226-4 0  9994
2 44752  53.0530 307.5384 0001658  86.3195 273.7983 15.06403879175861
1 44752U 19074AR  23019.77296507 -.00004837  00000-0 -30610-3 0  9998
2 44752  53.0522 306.3536 0001608  90.1952 269.9221 15.06390671175909
1 44752U 19074AR  23019.77296507 -.00004837  00000-0 -30610-3 0  9998
2 44752  53.0522 306.3536 0001608  90.1952 269.9221 15.06390671176078
1 44752U 19074AR  23020.50278117  .00015527  00000-0  10589-2 0  9996
2 44752  53.0527 303.0744 0000225 190.8525 169.2459 15.06401212176187
1 44752U 19074AR  23021.03356514  .00025805  00000-0  17448-2 0  9994
2 44752  53.0525 300.6923 0001489  91.6044 268.5115 15.06402372176263
1 44752U 19074AR  23021.49799244  .00019044  00000-0  12936-2 0  9990
2 44752  53.0514 298.6069 0001427  94.6303 265.4849 15.06409957176335
1 44752U 19074AR  23021.89606975  .00009637  00000-0  66472-3 0  9994
2 44752  53.0520 296.8197 0001451  91.0453 269.0702 15.06414621176396
1 44752U 19074AR  23023.09031551  .00000959  00000-0  83289-4 0  9994
2 44752  53.0516 291.4612 0001286  72.6050 287.5079 15.06399638176570
1 44752U 19074AR  23025.14706545  .00001658  00000-0  13017-3 0  9992
2 44752  53.0546 282.2238 0001129  88.8136 271.2982 15.06401313176886
1 44752U 19074AR  23025.41245899  .00002657  00000-0  19721-3 0  9990
2 44752  53.0551 281.0322 0001223  83.6398 276.4730 15.06391706176759
1 44752U 19074AR  23025.41245899  .00002657  00000-0  19721-3 0  9990
2 44752  53.0551 281.0322 0001223  83.6398 276.4730 15.06391706176928
1 44752U 19074AR  23026.00958262  .00000536  00000-0  54877-4 0  9997
2 44752  53.0547 278.3547 0001110  83.1698 276.9417 15.06394497176842
1 44752U 19074AR  23026.87208239  .00001173  00000-0  97583-4 0  9993
2 44752  53.0541 274.4830 0001036  88.5669 271.5439 15.06405646177140
1 44752U 19074AR  23026.93842766  .00001640  00000-0  12895-3 0  9990
2 44752  53.0532 274.1844 0000968  82.9151 277.1948 15.06407504176982
1 44752U 19074AR  23027.93364270  .00001247  00000-0  10261-3 0  9998
2 44752  53.0529 269.7168 0001075  82.7043 277.4069 15.06390226177132
1 44752U 19074AR  23028.06633032  .00001001  00000-0  86070-4 0  9998
2 44752  53.0521 269.1193 0001074  89.7163 270.3949 15.06398749177154
1 44752U 19074AR  23028.06633032  .00001001  00000-0  86070-4 0  9998
2 44752  53.0521 269.1193 0001074  89.7163 270.3949 15.06398749177323
1 44752U 19074AR  23028.86248786 -.00002355  00000-0 -13923-3 0  9995
2 44752  53.0526 265.5465 0001099  75.7993 284.3118 15.06415836177277
1 44752U 19074AR  23029.06153344  .00006932  00000-0  48397-3 0  9999
2 44752  53.0524 264.6526 0001302  93.1150 266.9988 15.06386381177474
1 44752U 19074AR  23029.72502227 -.00003784  00000-0 -23544-3 0  9991
2 44752  53.0514 261.6743 0001110  59.9312 300.1787 15.06370819177576
1 44752U 19074AR  23029.92406595 -.00003976  00000-0 -24842-3 0  9999
2 44752  53.0521 260.7796 0001312  89.6134 270.5005 15.06369302177431
1 44752U 19074AR  23030.58753317 -.00000708  00000-0 -28688-4 0  9993
2 44752  53.0531 257.8003 0001212  97.0923 263.0204 15.06389263177535
1 44752U 19074AR  23030.58753317 -.00000708  00000-0 -28688-4 0  9993
2 44752  53.0531 257.8003 0001212  97.0923 263.0204 15.06389263177704
1 44752U 19074AR  23030.91926018  .00000970  00000-0  84001-4 0  9990
2 44752  53.0528 256.3118 0001200  92.8744 267.2382 15.06400291177586
1 44752U 19074AR  23030.98560474  .00001630  00000-0  12830-3 0  9991
2 44752  53.0530 256.0135 0001291  95.0463 265.0673 15.06403525177591
1 44752U 19074AR  23030.98560474  .00001630  00000-0  12830-3 0  9991
2 44752  53.0530 256.0135 0001291  95.0463 265.0673 15.06403525177760
1 44752U 19074AR  23031.84811562  .00008612  00000-0  59614-3 0  9992
2 44752  53.0520 252.1420 0001528  89.0485 271.0679 15.06413670177724
1 44752U 19074AR  23031.98080576  .00009296  00000-0  64174-3 0  9996
2 44752  53.0519 251.5460 0001485  94.6912 265.4246 15.06421933177748
1 44752U 19074AR  23031.98080576  .00009296  00000-0  64174-3 0  9996
2 44752  53.0519 251.5460 0001485  94.6912 265.4246 15.06421933177917
